SENTINEL-6              
1 46984U 20086A   24155.49027173 -.00000054  00000+0  31661-4 0  9997
2 46984  66.0413 239.7173 0007885 270.5905  89.4206 12.80928305165077
